STARLINK-30927          
1 58382U 23178J   26068.07591213 -.00000755  00000+0 -13388-4 0  9992
2 58382  53.1617   4.1926 0001169  85.5281 274.5853 15.30189297129774
TOMORROW-S2             
1 60485U 24149T   26068.75188364  .00008133  00000+0  27683-3 0  9990
2 60485  97.3857 150.0385 0001648 234.3331 125.7757 15.30674935 86869
